{
  "norad_id": 61617,
  "name": "YAOGAN-43 03A",
  "history": [
    {
      "epoch": "2026-03-25T23:54:47.795328Z",
      "apogee_km": 501.3602392174653,
      "perigee_km": 492.4706588997842,
      "latitude_deg": 3.469423970365342e-06,
      "longitude_deg": 178.8274771512748,
      "height_km": 493.809529229664,
      "semi_major_axis_km": 6875.052449058625,
      "eccentricity": 0.00064651,
      "inclination_deg": 34.9914,
      "raan_deg": 0.9785,
      "arg_perigee_deg": 296.9618,
      "mean_anomaly_deg": 63.0436,
      "mean_motion_rev_day": 15.22960847
    }
  ]
}